RS57S MONITOR-4
1 57182U 23091S   26021.19757620  .00076007  00000+0  30576-2 0  9998
2 57182  97.5292  83.7229 0011290 256.0745 103.9236 15.24536763141879
RS-38S
1 57189U 23091Z   26022.51440723  .00020141  00000+0  67607-3 0  9999
2 57189  97.5293  89.4834 0007248 223.3813 136.6858 15.30879577142361
RS49S NANOZOND-1
1 57190U 23091AA  26022.50584164  .00112677  00000+0  13569-2 0  9991
2 57190  97.5200  99.5730 0004166 209.8393 150.2627 15.60426141143046
RS27S UTMN-2
1 57203U 23091AP  26022.49163071  .00015907  00000+0  58449-3 0  9999
2 57203  97.5293  87.9721 0007827 229.0567 130.9995 15.27972021142260
METEOR-M2-4
1 59051U 24039A   26022.50422396  .00000090  00000+0  60138-4 0  9991
2 59051  98.6827 343.7861 0006176 225.9818 134.0852 14.22408825 98555
SONATE-2
1 59112U 24043Q   26022.48564411  .00034326  00000+0  66184-3 0  9991
2 59112  97.5351 165.3421 0008630  20.3772 339.7820 15.47736008105278
MO-122
1 60209U 24125G   26022.32629910  .00042808  00000+0  77640-3 0  9993
2 60209  97.2490 237.8078 0015008  38.8318 321.4009 15.49361012 86881
GRBBeta
1 60237U 24128C   26022.34714719  .00006061  00000+0  42336-3 0  9996
2 60237  61.9918   7.4477 0054617 104.4827 256.2333 15.05210369 84303
Curium One
1 60242U 24128H   26022.47389097  .00012032  00000+0  72886-3 0  9991
2 60242  61.9811   0.8722 0054482 101.1254 259.5972 15.09731511 84439
ROBUSTA-3A
1 60243U 24128J   26022.29720546  .00011502  00000+0  71056-3 0  9999
2 60243  61.9888   3.2166 0055035  98.4451 262.2887 15.09031174 84383
CatSat
1 60246U 24125J   26022.48668881  .00047164  00000+0  10094-2 0  9990
2 60246  97.2263 234.5226 0031505   1.6732 358.4617 15.44111615 84809
ARTIC WX
1 60543U 24149CD  26022.47368990  .00002389  00000+0  25448-3 0  9993
2 60543  97.6962  97.0003 0001465 191.1974 168.9211 14.89817920 77603
ARCTICSAT 1
1 61762U 24199AD  26022.55122560  .00074572  00000+0  10107-2 0  9990
2 61762  97.3173 259.3960 0009207  71.2420 288.9834 15.57381093115193
MORDOVIA-IOT
1 61765U 24199AG  26022.60693771  .00511063  10360-3  15735-2 0  9993
2 61765  97.2983 263.5633 0006372  73.0959 287.1013 15.91751710112333
HYPERVIEW-1G (RS66S)
1 61772U 24199AP  26022.54957442  .00055546  00000+0  91876-3 0  9998
2 61772  97.3156 257.6046 0011721  88.3673 271.8922 15.51958301111937
AO-123
1 61781U 24199AY  26022.54899248  .00011888  00000+0  37407-3 0  9998
2 61781  97.3212 252.5735 0015974 107.4067 252.8923 15.32970129111596
SAMSAT-IONOSPHERE
1 61784U 24199BB  26022.50582172  .00035961  00000+0  74022-3 0  9994
2 61784  97.3182 256.0428 0012954  94.0537 266.2193 15.45769047114973
CROCUBE
1 62394U 24247T   26021.99826255  .00040744  00000+0  10780-2 0  9996
2 62394  44.9761 357.0674 0001890  13.8226 346.2712 15.37783597 60768
HADES-R (SO-124)
1 62690U 25009CK  26022.21092960  .00705798  00000+0  29057-2 0  9990
2 62690  97.3724 111.9722 0006014 292.4035  67.6597 15.84191527 57124
HYDRA-T
1 62692U 25009CM  26022.21516630  .01125326  58925-3  30557-2 0  9991
2 62692  97.3692 112.4238 0007634 294.5072  65.5406 15.94267558 57159
JINJUSat 1B
1 63210U 25052A   26022.27123235  .00020224  00000+0  73569-3 0  9995
2 63210  97.4175 279.2149 0001683 227.0255 133.0843 15.28274286 47774
NUSHSAT 1
1 63211U 25052B   26022.23525777  .00024135  00000+0  84210-3 0  9999
2 63211  97.4161 279.3633 0001377 236.6652 123.4456 15.29604789 47786
TEVEL2-4
1 63213U 25052D   26022.25552066  .00022719  00000+0  81270-3 0  9993
2 63213  97.4078 278.8478 0000794 297.6034  62.5125 15.28801797 47771
TEVEL2-5
1 63214U 25052E   26022.45957097  .00021403  00000+0  76800-3 0  9991
2 63214  97.4075 279.0321 0000821 294.5821  65.5333 15.28713018 47806
TEVEL2-6
1 63215U 25052F   26022.27173098  .00021828  00000+0  78436-3 0  9991
2 63215  97.4077 278.8323 0000919 294.7985  65.3159 15.28663258 47779
TEVEL2-1
1 63217U 25052H   26022.45449788  .00023143  00000+0  84047-3 0  9992
2 63217  97.4054 278.7898 0001373 323.7892  36.3254 15.28302192 47790
TEVEL2-3
1 63218U 25052J   26022.25661611  .00022827  00000+0  82855-3 0  9995
2 63218  97.4058 278.6012 0001380 332.0195  28.0970 15.28322676 47768
TEVEL2-2
1 63219U 25052K   26021.21118293  .00035563  00000+0  12905-2 0  9993
2 63219  97.4057 277.5539 0001559 332.4385  27.6772 15.28237120 47600
TEVEL2-9
1 63237U 25052AD  26022.45932464  .00019886  00000+0  75808-3 0  9996
2 63237  97.4116 278.4408 0005454 314.0280  46.0508 15.26718053 47754
TEVEL2-7
1 63238U 25052AE  26022.21543510  .00019542  00000+0  74924-3 0  9998
2 63238  97.4122 278.1636 0005560 315.2958  44.7832 15.26530934 47716
TEVEL2-8
1 63239U 25052AF  26022.48394750  .00018863  00000+0  72375-3 0  9991
2 63239  97.4119 278.4128 0005486 315.3434  44.7362 15.26514266 47751
HYDRA-W
1 63490U 25052BL  26022.25208590  .00118428  00000+0  21730-2 0  9997
2 63490  97.4021 281.8122 0003845 312.2098  47.8826 15.48833105 47976
HADES-ICM (SO-125)
1 63492U 25052BN  26022.43950235  .00095625  00000+0  19497-2 0  9999
2 63492  97.4028 281.5906 0004740 312.8214  47.2636 15.45859878 47978
PARUS-T2
1 64574U 25135AY  26022.46661514  .00007670  00000+0  71688-3 0  9999
2 64574  97.7608 138.8289 0003266  99.9920 260.1669 14.94409116 32159
Dragonfly
1 65729U 98067XH  26022.42384463  .00735371  25296-3  15178-2 0  9992
2 65729  51.6149 284.3450 0007498 167.7102 192.4091 15.98596013 19604
RSP-03
1 65732U 98067XL  26021.83449920  .00334127  00000+0  13899-2 0  9994
2 65732  51.6224 290.2233 0005585 139.2890 220.8531 15.84251727 19486
BOTAN
1 65942U 98067XP  26021.86948029  .00230928  00000+0  15020-2 0  9996
2 65942  51.6191 294.9954 0006689 128.0222 232.1381 15.74680416 16165
CEVROSAT1
1 66309U 25248S   26022.46061565  .00006526  00000+0  32209-3 0  9997
2 66309  45.4045 182.0827 0003702 289.5070  70.5415 15.18690105 12347
SPIRONE
1 66657U 25274H   26022.30299999  .00004535  00000+0  44380-3 0  9990
2 66657  97.7426 313.8257 0013371 133.2651 226.9687 14.92738648  8451
K-HERO
1 66660U 25274L   26022.35103366  .00005233  00000+0  50481-3 0  9996
2 66660  97.7428 313.9209 0015228 138.5280 221.7098 14.93221171  8463
SNUGLITE-III DURI
1 66661U 25274M   26022.34599124  .00004396  00000+0  42373-3 0  9997
2 66661  97.7423 313.9254 0015785 140.0457 220.1928 14.93334783  8460
SilverSat
1 66909U 98067XV  26022.47392867  .00112321  00000+0  14158-2 0  9998
2 66909  51.6293 299.0513 0003620 112.6606 247.4770 15.58739915  7955
GALAPAGOS
1 67279U 25313AH  26022.49202291  .00010597  00000+0  48684-3 0  9990
2 67279  97.4083  99.5302 0015522 150.7535 209.4573 15.20455944  3791
Lobachevsky
1 67282U 25313AL  26022.47924515  .00008420  00000+0  37996-3 0  9998
2 67282  97.4088  99.5343 0012019 145.3811 214.8210 15.21180284  3791
SAKHACUBE-CHOLBON
1 67290U 25313AU  26022.47348366  .00013674  00000+0  60609-3 0  9995
2 67290  97.4093  99.5525 0010769 142.9738 217.2243 15.21678132  3796
QMR-KWT
1 67291U 25313AV  26022.47261060  .00018496  00000+0  81498-3 0  9997
2 67291  97.4093  99.5539 0010595 142.9110 217.2860 15.21815004  3799
Delfi-N3xt
1 39428U 13066N   26022.24272565  .00013262  00000-0  12167-2 0  9990
2 39428  97.8352 302.9275 0077445 333.1637  26.5585 14.92703814652837
GHS-01
1 65733U 98067XM  26020.92375749  .09795873  12158-4  14287-2 0  9993
2 65733  51.6117 289.2885 0004779 208.5099 151.5664 16.33783644 19417
IO-86
1 40931U          25360.30710720  .00000000  00000-0  12800-3 0    00
2 40931   6.0006 332.5373 0012733 338.8432   8.1437 14.79075515    01
PARUS-T1
1 98707U 25009N   25063.20000000  .00000000  00000-0  00000-0 0    08
2 98707  97.4430 144.9801 0003811 149.1702 136.3402 15.16239457    06
T.MicroSat-1
1 98515U 25276Y   25347.12519372 +.00009703 +00000+0 +47621-3 0 00218
2 98515  97.4377  58.8963 0002080  99.7173 260.4296 15.18293117002180
CORIOLIS
1 27640U 03001A   26023.45975795  .00000274  00000+0  14959-3 0  9990
2 27640  98.7150  32.5440 0012944 270.0052  89.9641 14.19892278193680
